IRIDIUM 57              
1 25273U 98019B   24231.54260281  .00000935  00000+0  31935-3 0  9996
2 25273  86.3919 271.9981 0002264  90.8731 269.2725 14.35339919381570
IRIDIUM 63              
1 25286U 98021B   24231.47264921  .00001444  00000+0  49145-3 0  9998
2 25286  86.4001 208.9379 0002382  93.3219 266.8251 14.35904231380669
IRIDIUM 69              
1 25319U 98026A   24231.07963615  .00001611  00000+0  50409-3 0  9993
2 25319  86.3969 223.2952 0001334  18.4755 341.6492 14.40158937379425
IRIDIUM 71              
1 25320U 98026B   24231.06646867  .00001786  00000+0  55595-3 0  9995
2 25320  86.3976 218.0509 0003383  50.4449 309.7048 14.40466554379943
IRIDIUM 73              
1 25344U 98032C   24231.24458583  .00002593  00000+0  65447-3 0  9998
2 25344  86.4482 175.3466 0002009  78.9582 281.1849 14.50751440386623
IRIDIUM 82              
1 25467U 98051A   24231.50602239  .00028407  00000+0  13423-2 0  9991
2 25467  86.3696 256.1429 0120294 352.3655   7.5746 15.12981299377902
